{
    "links": {
        "self": "http://www.neowsapp.com/rest/v1/neo/3718323?api_key=iIulBulltgU6a56xZRHN4H3l9WmuAYTsLGpBGhQ2"
    },
    "id": "3718323",
    "neo_reference_id": "3718323",
    "name": "(2015 HC117)",
    "designation": "2015 HC117",
    "nasa_jpl_url": "http://ssd.jpl.nasa.gov/sbdb.cgi?sstr=3718323",
    "absolute_magnitude_h": 20.0,
    "estimated_diameter": {
        "kilometers": {
            "estimated_diameter_min": 0.2658,
            "estimated_diameter_max": 0.5943468684
        },
        "meters": {
            "estimated_diameter_min": 265.8,
            "estimated_diameter_max": 594.3468684194
        },
        "miles": {
            "estimated_diameter_min": 0.1651604118,
            "estimated_diameter_max": 0.369309908
        },
        "feet": {
            "estimated_diameter_min": 872.047272,
            "estimated_diameter_max": 1949.9569797852
        }
    },
    "is_potentially_hazardous_asteroid": false,
    "close_approach_data": [
        {
            "close_approach_date": "2009-06-17",
            "close_approach_date_full": "2009-Jun-17 07:39",
            "epoch_date_close_approach": 1245224340000,
            "relative_velocity": {
                "kilometers_per_second": "2.4774481836",
                "kilometers_per_hour": "8918.8134609025",
                "miles_per_hour": "5541.8038418591"
            },
            "miss_distance": {
                "astronomical": "1.5908050659",
                "lunar": "618.8231706351",
                "kilometers": "237981049.443849633",
                "miles": "147874567.0896176154"
            },
            "orbiting_body": "Juptr"
        },
        {
            "close_approach_date": "2026-02-16",
            "close_approach_date_full": "2026-Feb-16 06:44",
            "epoch_date_close_approach": 1771224240000,
            "relative_velocity": {
                "kilometers_per_second": "4.2858457141",
                "kilometers_per_hour": "15429.0445708696",
                "miles_per_hour": "9587.0082779384"
            },
            "miss_distance": {
                "astronomical": "0.2366622479",
                "lunar": "92.0616144331",
                "kilometers": "35404168.195251973",
                "miles": "21999130.0033163074"
            },
            "orbiting_body": "Earth"
        }
    ],
    "orbital_data": {
        "orbit_id": "11",
        "orbit_determination_date": "2018-02-10 07:06:43",
        "first_observation_date": "2015-03-28",
        "last_observation_date": "2015-05-29",
        "data_arc_in_days": 62,
        "observations_used": 45,
        "orbit_uncertainty": "5",
        "minimum_orbit_intersection": ".243504",
        "jupiter_tisserand_invariant": "3.355",
        "epoch_osculation": "2459000.5",
        "eccentricity": ".4854020688960827",
        "semi_major_axis": "2.391355273442265",
        "inclination": "6.14120316807406",
        "ascending_node_longitude": "154.4779386077468",
        "orbital_period": "1350.717666378582",
        "perihelion_distance": "1.230586476247832",
        "perihelion_argument": "349.8756340009165",
        "aphelion_distance": "3.552124070636698",
        "perihelion_time": "2458387.422869448791",
        "mean_anomaly": "163.4003704047021",
        "mean_motion": ".2665249807276145",
        "equinox": "J2000",
        "orbit_class": {
            "orbit_class_type": "AMO",
            "orbit_class_description": "Near-Earth asteroid orbits similar to that of 1221 Amor",
            "orbit_class_range": "1.017 AU < q (perihelion) < 1.3 AU"
        }
    },
    "is_sentry_object": false
}